[{"OBJECT_NAME":"STARLINK-5353","OBJECT_ID":"2023-099AU","EPOCH":"2026-03-09T12:33:38.453472","MEAN_MOTION":15.02535385,"ECCENTRICITY":0.0001278,"INCLINATION":43.0027,"RA_OF_ASC_NODE":236.6608,"ARG_OF_PERICENTER":270.4242,"MEAN_ANOMALY":89.6454,"EPHEMERIS_TYPE":0,"CLASSIFICATION_TYPE":"U","NORAD_CAT_ID":57370,"ELEMENT_SET_NO":999,"REV_AT_EPOCH":14624,"BSTAR":3.7333287e-5,"MEAN_MOTION_DOT":3.01e-6,"MEAN_MOTION_DDOT":0},{"OBJECT_NAME":"CZ-6A DEB","OBJECT_ID":"2022-151NQ","EPOCH":"2026-03-09T17:05:31.837920","MEAN_MOTION":14.96919824,"ECCENTRICITY":0.00482154,"INCLINATION":98.6429,"RA_OF_ASC_NODE":147.6002,"ARG_OF_PERICENTER":185.0484,"MEAN_ANOMALY":175.0256,"EPHEMERIS_TYPE":0,"CLASSIFICATION_TYPE":"U","NORAD_CAT_ID":54614,"ELEMENT_SET_NO":999,"REV_AT_EPOCH":10489,"BSTAR":0.0050921909,"MEAN_MOTION_DOT":0.00060273,"MEAN_MOTION_DDOT":0}]
